ONEWEB-0171             
1 48070U 21025AE  25126.22994201  .00000024  00000+0  29848-4 0  9994
2 48070  87.8996  41.1229 0001759  78.1049 282.0277 13.13469586200194
ONEWEB-0172             
1 48071U 21025AF  25125.67636967  .00000335  00000+0  88206-3 0  9992
2 48071  87.8995  41.1996 0001739  82.1730 277.9597 13.13468842201019
ONEWEB-0174             
1 48072U 21025AG  25125.81010304  .00000060  00000+0  12954-3 0  9992
2 48072  87.8994  41.1866 0002019  80.9127 279.2231 13.13469905200350
ONEWEB-0175             
1 48073U 21025AH  25125.84059291  .00000208  00000+0  53492-3 0  9990
2 48073  87.8990  41.1506 0001538  76.0824 284.0476 13.13469400200011
ONEWEB-0177             
1 48074U 21025AJ  25126.15712761 -.00000047  00000+0 -16263-3 0  9992
2 48074  87.8991  41.1003 0001962  86.6307 273.5047 13.13468131200241
ONEWEB-0178             
1 48075U 21025AK  25125.79500499  .00000655  00000+0  17582-2 0  9992
2 48075  87.8995  41.2132 0001733  86.3254 273.8073 13.13466705200241
ONEWEB-0108             
1 48076U 21025AL  25125.52570806  .00000365  00000+0  96403-3 0  9991
2 48076  87.8991  41.2215 0002092  75.0182 285.1179 13.13468844200131
ONEWEB-0169             
1 48077U 21025AM  25126.01493320 -.00000225  00000+0 -65017-3 0  9996
2 48077  87.8993  41.1425 0002039  74.8402 285.2952 13.13469809200096
